[{"OBJECT_NAME":"STARLINK-37055","OBJECT_ID":"2026-049F","EPOCH":"2026-04-05T13:37:09.221376","MEAN_MOTION":15.809206,"ECCENTRICITY":0.00011462,"INCLINATION":97.2845,"RA_OF_ASC_NODE":116.2057,"ARG_OF_PERICENTER":108.113,"MEAN_ANOMALY":252.0263,"EPHEMERIS_TYPE":0,"CLASSIFICATION_TYPE":"U","NORAD_CAT_ID":68147,"ELEMENT_SET_NO":999,"REV_AT_EPOCH":365,"BSTAR":0.00091947963,"MEAN_MOTION_DOT":0.00180533,"MEAN_MOTION_DDOT":0},{"OBJECT_NAME":"STARLINK-36981","OBJECT_ID":"2026-049G","EPOCH":"2026-04-05T13:32:49.366464","MEAN_MOTION":15.80935628,"ECCENTRICITY":0.0001173,"INCLINATION":97.2846,"RA_OF_ASC_NODE":116.2099,"ARG_OF_PERICENTER":109.5727,"MEAN_ANOMALY":250.5668,"EPHEMERIS_TYPE":0,"CLASSIFICATION_TYPE":"U","NORAD_CAT_ID":68148,"ELEMENT_SET_NO":999,"REV_AT_EPOCH":365,"BSTAR":0.0011035929,"MEAN_MOTION_DOT":0.00217796,"MEAN_MOTION_DDOT":0},{"OBJECT_NAME":"STARLINK-36992","OBJECT_ID":"2026-049H","EPOCH":"2026-04-05T12:00:35.387712","MEAN_MOTION":15.80942838,"ECCENTRICITY":9.849e-5,"INCLINATION":97.2847,"RA_OF_ASC_NODE":116.1439,"ARG_OF_PERICENTER":74.0251,"MEAN_ANOMALY":286.1126,"EPHEMERIS_TYPE":0,"CLASSIFICATION_TYPE":"U","NORAD_CAT_ID":68149,"ELEMENT_SET_NO":999,"REV_AT_EPOCH":364,"BSTAR":0.0012358338,"MEAN_MOTION_DOT":0.00244754,"MEAN_MOTION_DDOT":0},{"OBJECT_NAME":"STARLINK-37060","OBJECT_ID":"2026-049J","EPOCH":"2026-04-05T13:30:39.649824","MEAN_MOTION":15.80924489,"ECCENTRICITY":0.00015832,"INCLINATION":97.2849,"RA_OF_ASC_NODE":116.2121,"ARG_OF_PERICENTER":99.0371,"MEAN_ANOMALY":261.1077,"EPHEMERIS_TYPE":0,"CLASSIFICATION_TYPE":"U","NORAD_CAT_ID":68150,"ELEMENT_SET_NO":999,"REV_AT_EPOCH":365,"BSTAR":0.00095853829,"MEAN_MOTION_DOT":0.00188415,"MEAN_MOTION_DDOT":0},{"OBJECT_NAME":"STARLINK-37073","OBJECT_ID":"2026-049K","EPOCH":"2026-04-05T13:52:53.253696","MEAN_MOTION":15.75282807,"ECCENTRICITY":0.00012203,"INCLINATION":97.2844,"RA_OF_ASC_NODE":116.1906,"ARG_OF_PERICENTER":117.0088,"MEAN_ANOMALY":243.1302,"EPHEMERIS_TYPE":0,"CLASSIFICATION_TYPE":"U","NORAD_CAT_ID":68151,"ELEMENT_SET_NO":999,"REV_AT_EPOCH":365,"BSTAR":0.0010733333,"MEAN_MOTION_DOT":0.00163726,"MEAN_MOTION_DDOT":0},{"OBJECT_NAME":"STARLINK-37049","OBJECT_ID":"2026-049L","EPOCH":"2026-04-05T14:00:03.000384","MEAN_MOTION":15.7525804,"ECCENTRICITY":0.0001514,"INCLINATION":97.2846,"RA_OF_ASC_NODE":116.216,"ARG_OF_PERICENTER":103.8344,"MEAN_ANOMALY":330.466,"EPHEMERIS_TYPE":0,"CLASSIFICATION_TYPE":"U","NORAD_CAT_ID":68152,"ELEMENT_SET_NO":999,"REV_AT_EPOCH":494,"BSTAR":-0.00079785347,"MEAN_MOTION_DOT":-0.00117858,"MEAN_MOTION_DDOT":0},{"OBJECT_NAME":"STARLINK-37072","OBJECT_ID":"2026-049M","EPOCH":"2026-04-05T13:57:58.265568","MEAN_MOTION":15.75253445,"ECCENTRICITY":0.00013115,"INCLINATION":97.2844,"RA_OF_ASC_NODE":116.1861,"ARG_OF_PERICENTER":87.5534,"MEAN_ANOMALY":272.5882,"EPHEMERIS_TYPE":0,"CLASSIFICATION_TYPE":"U","NORAD_CAT_ID":68153,"ELEMENT_SET_NO":999,"REV_AT_EPOCH":365,"BSTAR":0.00068154528,"MEAN_MOTION_DOT":0.00103044,"MEAN_MOTION_DDOT":0},{"OBJECT_NAME":"STARLINK-36241","OBJECT_ID":"2026-049N","EPOCH":"2026-04-05T14:15:14.882400","MEAN_MOTION":15.75287916,"ECCENTRICITY":0.0001638,"INCLINATION":97.2846,"RA_OF_ASC_NODE":116.1684,"ARG_OF_PERICENTER":103.8344,"MEAN_ANOMALY":256.3104,"EPHEMERIS_TYPE":0,"CLASSIFICATION_TYPE":"U","NORAD_CAT_ID":68154,"ELEMENT_SET_NO":999,"REV_AT_EPOCH":365,"BSTAR":0.0013295683,"MEAN_MOTION_DOT":0.00203852,"MEAN_MOTION_DDOT":0},{"OBJECT_NAME":"STARLINK-37048","OBJECT_ID":"2026-049P","EPOCH":"2026-04-05T13:23:05.172864","MEAN_MOTION":15.80918125,"ECCENTRICITY":0.00015059,"INCLINATION":97.2855,"RA_OF_ASC_NODE":116.2189,"ARG_OF_PERICENTER":99.4865,"MEAN_ANOMALY":260.6574,"EPHEMERIS_TYPE":0,"CLASSIFICATION_TYPE":"U","NORAD_CAT_ID":68155,"ELEMENT_SET_NO":999,"REV_AT_EPOCH":365,"BSTAR":0.00077395916,"MEAN_MOTION_DOT":0.00151414,"MEAN_MOTION_DDOT":0},{"OBJECT_NAME":"STARLINK-36313","OBJECT_ID":"2026-049Q","EPOCH":"2026-04-05T13:24:40.981824","MEAN_MOTION":15.79071862,"ECCENTRICITY":9.05e-5,"INCLINATION":97.2854,"RA_OF_ASC_NODE":116.2169,"ARG_OF_PERICENTER":79.2149,"MEAN_ANOMALY":280.922,"EPHEMERIS_TYPE":0,"CLASSIFICATION_TYPE":"U","NORAD_CAT_ID":68156,"ELEMENT_SET_NO":999,"REV_AT_EPOCH":365,"BSTAR":-0.0053424287,"MEAN_MOTION_DOT":-0.00857183,"MEAN_MOTION_DDOT":0},{"OBJECT_NAME":"STARLINK-37064","OBJECT_ID":"2026-049R","EPOCH":"2026-04-05T13:26:19.705920","MEAN_MOTION":15.80932668,"ECCENTRICITY":8.446e-5,"INCLINATION":97.285,"RA_OF_ASC_NODE":116.2153,"ARG_OF_PERICENTER":139.4231,"MEAN_ANOMALY":220.7101,"EPHEMERIS_TYPE":0,"CLASSIFICATION_TYPE":"U","NORAD_CAT_ID":68157,"ELEMENT_SET_NO":999,"REV_AT_EPOCH":365,"BSTAR":0.0010111695,"MEAN_MOTION_DOT":0.00199086,"MEAN_MOTION_DDOT":0},{"OBJECT_NAME":"STARLINK-37069","OBJECT_ID":"2026-049S","EPOCH":"2026-04-05T14:10:09.899904","MEAN_MOTION":15.75302515,"ECCENTRICITY":0.00015967,"INCLINATION":97.2845,"RA_OF_ASC_NODE":116.1736,"ARG_OF_PERICENTER":108.6347,"MEAN_ANOMALY":251.5092,"EPHEMERIS_TYPE":0,"CLASSIFICATION_TYPE":"U","NORAD_CAT_ID":68158,"ELEMENT_SET_NO":999,"REV_AT_EPOCH":365,"BSTAR":0.001300183,"MEAN_MOTION_DOT":0.00199364,"MEAN_MOTION_DDOT":0},{"OBJECT_NAME":"STARLINK-37053","OBJECT_ID":"2026-049T","EPOCH":"2026-04-05T14:00:03.000384","MEAN_MOTION":15.75268505,"ECCENTRICITY":0.00013148,"INCLINATION":97.2848,"RA_OF_ASC_NODE":116.2318,"ARG_OF_PERICENTER":116.3706,"MEAN_ANOMALY":353.9253,"EPHEMERIS_TYPE":0,"CLASSIFICATION_TYPE":"U","NORAD_CAT_ID":68159,"ELEMENT_SET_NO":999,"REV_AT_EPOCH":494,"BSTAR":-0.00084316644,"MEAN_MOTION_DOT":-0.00124502,"MEAN_MOTION_DDOT":0},{"OBJECT_NAME":"STARLINK-36306","OBJECT_ID":"2026-049U","EPOCH":"2026-04-05T14:04:34.697280","MEAN_MOTION":15.75299406,"ECCENTRICITY":0.0001371,"INCLINATION":97.2844,"RA_OF_ASC_NODE":116.1792,"ARG_OF_PERICENTER":97.5301,"MEAN_ANOMALY":262.612,"EPHEMERIS_TYPE":0,"CLASSIFICATION_TYPE":"U","NORAD_CAT_ID":68160,"ELEMENT_SET_NO":999,"REV_AT_EPOCH":365,"BSTAR":0.0013922495,"MEAN_MOTION_DOT":0.00213825,"MEAN_MOTION_DDOT":0},{"OBJECT_NAME":"STARLINK-37057","OBJECT_ID":"2026-049V","EPOCH":"2026-04-05T14:00:03.000384","MEAN_MOTION":15.75232087,"ECCENTRICITY":0.00015607,"INCLINATION":97.2848,"RA_OF_ASC_NODE":116.2357,"ARG_OF_PERICENTER":95.0787,"MEAN_ANOMALY":27.2409,"EPHEMERIS_TYPE":0,"CLASSIFICATION_TYPE":"U","NORAD_CAT_ID":68161,"ELEMENT_SET_NO":999,"REV_AT_EPOCH":494,"BSTAR":-0.00054033094,"MEAN_MOTION_DOT":-0.0008012,"MEAN_MOTION_DDOT":0},{"OBJECT_NAME":"STARLINK-37013","OBJECT_ID":"2026-049W","EPOCH":"2026-04-05T13:14:25.882080","MEAN_MOTION":15.80849467,"ECCENTRICITY":9.722e-5,"INCLINATION":97.2859,"RA_OF_ASC_NODE":116.2262,"ARG_OF_PERICENTER":119.2407,"MEAN_ANOMALY":240.8959,"EPHEMERIS_TYPE":0,"CLASSIFICATION_TYPE":"U","NORAD_CAT_ID":68162,"ELEMENT_SET_NO":999,"REV_AT_EPOCH":365,"BSTAR":-9.1080552e-5,"MEAN_MOTION_DOT":-0.00017579,"MEAN_MOTION_DDOT":0},{"OBJECT_NAME":"STARLINK-36958","OBJECT_ID":"2026-049X","EPOCH":"2026-04-05T14:00:03.000384","MEAN_MOTION":15.75263235,"ECCENTRICITY":0.00013288,"INCLINATION":97.2846,"RA_OF_ASC_NODE":116.2269,"ARG_OF_PERICENTER":99.6045,"MEAN_ANOMALY":358.6958,"EPHEMERIS_TYPE":0,"CLASSIFICATION_TYPE":"U","NORAD_CAT_ID":68163,"ELEMENT_SET_NO":999,"REV_AT_EPOCH":494,"BSTAR":-0.00074448284,"MEAN_MOTION_DOT":-0.00110104,"MEAN_MOTION_DDOT":0},{"OBJECT_NAME":"STARLINK-37002","OBJECT_ID":"2026-049Y","EPOCH":"2026-04-05T14:48:48.975264","MEAN_MOTION":15.80950898,"ECCENTRICITY":8.89e-5,"INCLINATION":97.2856,"RA_OF_ASC_NODE":116.2905,"ARG_OF_PERICENTER":154.2908,"MEAN_ANOMALY":205.8404,"EPHEMERIS_TYPE":0,"CLASSIFICATION_TYPE":"U","NORAD_CAT_ID":68164,"ELEMENT_SET_NO":999,"REV_AT_EPOCH":366,"BSTAR":0.00099101857,"MEAN_MOTION_DOT":0.0019519,"MEAN_MOTION_DDOT":0},{"OBJECT_NAME":"STARLINK-36971","OBJECT_ID":"2026-049Z","EPOCH":"2026-04-05T13:44:15.281376","MEAN_MOTION":15.75275502,"ECCENTRICITY":0.00014747,"INCLINATION":97.2845,"RA_OF_ASC_NODE":116.1993,"ARG_OF_PERICENTER":94.9432,"MEAN_ANOMALY":265.2002,"EPHEMERIS_TYPE":0,"CLASSIFICATION_TYPE":"U","NORAD_CAT_ID":68165,"ELEMENT_SET_NO":999,"REV_AT_EPOCH":365,"BSTAR":0.0011393532,"MEAN_MOTION_DOT":0.0017396,"MEAN_MOTION_DDOT":0},{"OBJECT_NAME":"STARLINK-36273","OBJECT_ID":"2026-049AA","EPOCH":"2026-04-05T12:32:05.424000","MEAN_MOTION":15.75267748,"ECCENTRICITY":0.00015412,"INCLINATION":97.2846,"RA_OF_ASC_NODE":116.1136,"ARG_OF_PERICENTER":91.0142,"MEAN_ANOMALY":269.13,"EPHEMERIS_TYPE":0,"CLASSIFICATION_TYPE":"U","NORAD_CAT_ID":68166,"ELEMENT_SET_NO":999,"REV_AT_EPOCH":364,"BSTAR":0.0010611092,"MEAN_MOTION_DOT":0.00161717,"MEAN_MOTION_DDOT":0},{"OBJECT_NAME":"STARLINK-36969","OBJECT_ID":"2026-050A","EPOCH":"2026-04-05T13:22:23.037312","MEAN_MOTION":15.80955368,"ECCENTRICITY":0.0001099,"INCLINATION":53.1563,"RA_OF_ASC_NODE":147.1927,"ARG_OF_PERICENTER":69.5781,"MEAN_ANOMALY":290.536,"EPHEMERIS_TYPE":0,"CLASSIFICATION_TYPE":"U","NORAD_CAT_ID":68167,"ELEMENT_SET_NO":999,"REV_AT_EPOCH":472,"BSTAR":0.0006093066,"MEAN_MOTION_DOT":0.0012173,"MEAN_MOTION_DDOT":0},{"OBJECT_NAME":"STARLINK-36984","OBJECT_ID":"2026-050B","EPOCH":"2026-04-05T13:21:58.710528","MEAN_MOTION":15.78819134,"ECCENTRICITY":3.623e-5,"INCLINATION":53.1564,"RA_OF_ASC_NODE":147.1907,"ARG_OF_PERICENTER":0.076,"MEAN_ANOMALY":0.0262,"EPHEMERIS_TYPE":0,"CLASSIFICATION_TYPE":"U","NORAD_CAT_ID":68168,"ELEMENT_SET_NO":999,"REV_AT_EPOCH":472,"BSTAR":-0.0052163264,"MEAN_MOTION_DOT":-0.00849935,"MEAN_MOTION_DDOT":0},{"OBJECT_NAME":"STARLINK-37077","OBJECT_ID":"2026-050C","EPOCH":"2026-04-05T13:20:13.533216","MEAN_MOTION":15.80947947,"ECCENTRICITY":9.355e-5,"INCLINATION":53.1567,"RA_OF_ASC_NODE":147.1827,"ARG_OF_PERICENTER":112.7114,"MEAN_ANOMALY":247.4008,"EPHEMERIS_TYPE":0,"CLASSIFICATION_TYPE":"U","NORAD_CAT_ID":68169,"ELEMENT_SET_NO":999,"REV_AT_EPOCH":472,"BSTAR":0.0005798442,"MEAN_MOTION_DOT":0.00115688,"MEAN_MOTION_DDOT":0}]
